{
  "links" : {
    "next" : "https://api.nasa.gov/neo/rest/v1/feed?start_date=2014-11-09&end_date=2014-11-09&detailed=true&api_key=t0TVs3DtDT2H8Oy2Zy8m2eVrNsAVKAexjcZXUckd",
    "prev" : "https://api.nasa.gov/neo/rest/v1/feed?start_date=2014-11-07&end_date=2014-11-07&detailed=true&api_key=t0TVs3DtDT2H8Oy2Zy8m2eVrNsAVKAexjcZXUckd",
    "self" : "https://api.nasa.gov/neo/rest/v1/feed?start_date=2014-11-08&end_date=2014-11-08&detailed=true&api_key=t0TVs3DtDT2H8Oy2Zy8m2eVrNsAVKAexjcZXUckd"
  },
  "element_count" : 11,
  "near_earth_objects" : {
    "2014-11-08" : [ {
      "links" : {
        "self" : "https://api.nasa.gov/neo/rest/v1/neo/2374158?api_key=t0TVs3DtDT2H8Oy2Zy8m2eVrNsAVKAexjcZXUckd"
      },
      "neo_reference_id" : "2374158",
      "name" : "374158 (2004 UL)",
      "nasa_jpl_url" : "http://ssd.jpl.nasa.gov/sbdb.cgi?sstr=2374158",
      "absolute_magnitude_h" : 18.8,
      "estimated_diameter" : {
        "kilometers" : {
          "estimated_diameter_min" : 0.4619074603,
          "estimated_diameter_max" : 1.0328564805
        },
        "meters" : {
          "estimated_diameter_min" : 461.9074602816,
          "estimated_diameter_max" : 1032.8564805039
        },
        "miles" : {
          "estimated_diameter_min" : 0.2870159005,
          "estimated_diameter_max" : 0.6417870641
        },
        "feet" : {
          "estimated_diameter_min" : 1515.4444719902,
          "estimated_diameter_max" : 3388.6368554964
        }
      },
      "is_potentially_hazardous_asteroid" : true,
      "close_approach_data" : [ {
        "close_approach_date" : "2014-11-08",
        "epoch_date_close_approach" : 1415433600000,
        "relative_velocity" : {
          "kilometers_per_second" : "28.3112101666",
          "kilometers_per_hour" : "101920.3565996646",
          "miles_per_hour" : "63329.3460216083"
        },
        "miss_distance" : {
          "astronomical" : "0.2802373445",
          "lunar" : "109.0123291016",
          "kilometers" : "41922912",
          "miles" : "26049690"
        },
        "orbiting_body" : "Earth"
      } ],
      "orbital_data" : {
        "orbit_id" : "54",
        "orbit_determination_date" : "2017-04-06 09:22:27",
        "orbit_uncertainty" : "0",
        "minimum_orbit_intersection" : ".0181583",
        "jupiter_tisserand_invariant" : "4.448",
        "epoch_osculation" : "2458000.5",
        "eccentricity" : ".9267331691411239",
        "semi_major_axis" : "1.266388566269488",
        "inclination" : "23.78512851693478",
        "ascending_node_longitude" : "39.57461454418796",
        "orbital_period" : "520.533755783069",
        "perihelion_distance" : ".09278427688648115",
        "perihelion_argument" : "149.5713153315629",
        "aphelion_distance" : "2.439992855652494",
        "perihelion_time" : "2458057.006601244248",
        "mean_anomaly" : "320.9201589293144",
        "mean_motion" : ".6915977993750496",
        "equinox" : "J2000"
      }
    }, {
      "links" : {
        "self" : "https://api.nasa.gov/neo/rest/v1/neo/3143121?api_key=t0TVs3DtDT2H8Oy2Zy8m2eVrNsAVKAexjcZXUckd"
      },
      "neo_reference_id" : "3143121",
      "name" : "(2002 XB)",
      "nasa_jpl_url" : "http://ssd.jpl.nasa.gov/sbdb.cgi?sstr=3143121",
      "absolute_magnitude_h" : 21.8,
      "estimated_diameter" : {
        "kilometers" : {
          "estimated_diameter_min" : 0.1160259082,
          "estimated_diameter_max" : 0.2594418179
        },
        "meters" : {
          "estimated_diameter_min" : 116.0259082094,
          "estimated_diameter_max" : 259.4418179074
        },
        "miles" : {
          "estimated_diameter_min" : 0.0720951346,
          "estimated_diameter_max" : 0.1612096218
        },
        "feet" : {
          "estimated_diameter_min" : 380.6624406898,
          "estimated_diameter_max" : 851.1870938635
        }
      },
      "is_potentially_hazardous_asteroid" : false,
      "close_approach_data" : [ {
        "close_approach_date" : "2014-11-08",
        "epoch_date_close_approach" : 1415433600000,
        "relative_velocity" : {
          "kilometers_per_second" : "15.5840373831",
          "kilometers_per_hour" : "56102.5345791773",
          "miles_per_hour" : "34859.9332222671"
        },
        "miss_distance" : {
          "astronomical" : "0.341537819",
          "lunar" : "132.858215332",
          "kilometers" : "51093332",
          "miles" : "31747926"
        },
        "orbiting_body" : "Earth"
      } ],
      "orbital_data" : {
        "orbit_id" : "16",
        "orbit_determination_date" : "2017-04-06 09:14:35",
        "orbit_uncertainty" : "1",
        "minimum_orbit_intersection" : ".130683",
        "jupiter_tisserand_invariant" : "6.474",
        "epoch_osculation" : "2458000.5",
        "eccentricity" : ".2374628949357887",
        "semi_major_axis" : ".9060464302129086",
        "inclination" : "25.53697214530072",
        "ascending_node_longitude" : "245.8904052456558",
        "orbital_period" : "315.0098306891543",
        "perihelion_distance" : ".6908940219483144",
        "perihelion_argument" : "351.2560269339909",
        "aphelion_distance" : "1.121198838477503",
        "perihelion_time" : "2458107.148493046157",
        "mean_anomaly" : "238.1198116496168",
        "mean_motion" : "1.142821477070794",
        "equinox" : "J2000"
      }
    }, {
      "links" : {
        "self" : "https://api.nasa.gov/neo/rest/v1/neo/3407480?api_key=t0TVs3DtDT2H8Oy2Zy8m2eVrNsAVKAexjcZXUckd"
      },
      "neo_reference_id" : "3407480",
      "name" : "(2008 FO)",
      "nasa_jpl_url" : "http://ssd.jpl.nasa.gov/sbdb.cgi?sstr=3407480",
      "absolute_magnitude_h" : 23.2,
      "estimated_diameter" : {
        "kilometers" : {
          "estimated_diameter_min" : 0.0608912622,
          "estimated_diameter_max" : 0.1361570015
        },
        "meters" : {
          "estimated_diameter_min" : 60.8912622106,
          "estimated_diameter_max" : 136.1570015386
        },
        "miles" : {
          "estimated_diameter_min" : 0.0378360645,
          "estimated_diameter_max" : 0.0846040122
        },
        "feet" : {
          "estimated_diameter_min" : 199.7744887109,
          "estimated_diameter_max" : 446.7093369279
        }
      },
      "is_potentially_hazardous_asteroid" : false,
      "close_approach_data" : [ {
        "close_approach_date" : "2014-11-08",
        "epoch_date_close_approach" : 1415433600000,
        "relative_velocity" : {
          "kilometers_per_second" : "12.5530159595",
          "kilometers_per_hour" : "45190.8574542745",
          "miles_per_hour" : "28079.8413998519"
        },
        "miss_distance" : {
          "astronomical" : "0.2058099685",
          "lunar" : "80.0600738525",
          "kilometers" : "30788732",
          "miles" : "19131232"
        },
        "orbiting_body" : "Earth"
      } ],
      "orbital_data" : {
        "orbit_id" : "18",
        "orbit_determination_date" : "2017-04-06 09:03:55",
        "orbit_uncertainty" : "6",
        "minimum_orbit_intersection" : ".00376648",
        "jupiter_tisserand_invariant" : "5.133",
        "epoch_osculation" : "2458000.5",
        "eccentricity" : ".2758652239280004",
        "semi_major_axis" : "1.240403815654468",
        "inclination" : ".7386766734024656",
        "ascending_node_longitude" : "335.9998726841375",
        "orbital_period" : "504.5951444671718",
        "perihelion_distance" : ".8982195392878023",
        "perihelion_argument" : "141.2622719349817",
        "aphelion_distance" : "1.582588092021134",
        "perihelion_time" : "2458028.559123651402",
        "mean_anomaly" : "339.9814076190308",
        "mean_motion" : ".7134432503906526",
        "equinox" : "J2000"
      }
    } ]
  }
}